[{"OBJECT_NAME":"STARLINK-5307","OBJECT_ID":"2023-021AG","EPOCH":"2026-03-09T18:03:19.809504","MEAN_MOTION":14.98334081,"ECCENTRICITY":0.0003547,"INCLINATION":70.0011,"RA_OF_ASC_NODE":184.1828,"ARG_OF_PERICENTER":269.3273,"MEAN_ANOMALY":90.7479,"EPHEMERIS_TYPE":0,"CLASSIFICATION_TYPE":"U","NORAD_CAT_ID":55658,"ELEMENT_SET_NO":999,"REV_AT_EPOCH":16880,"BSTAR":-1.0969531e-5,"MEAN_MOTION_DOT":-2.24e-6,"MEAN_MOTION_DDOT":0},{"OBJECT_NAME":"LEMUR-2-BALTO","OBJECT_ID":"2025-052BH","EPOCH":"2026-03-09T16:40:42.002112","MEAN_MOTION":14.98934076,"ECCENTRICITY":0.00022794,"INCLINATION":97.6978,"RA_OF_ASC_NODE":323.5166,"ARG_OF_PERICENTER":359.2852,"MEAN_ANOMALY":0.8367,"EPHEMERIS_TYPE":0,"CLASSIFICATION_TYPE":"U","NORAD_CAT_ID":63395,"ELEMENT_SET_NO":999,"REV_AT_EPOCH":5385,"BSTAR":0.00063455958,"MEAN_MOTION_DOT":7.621e-5,"MEAN_MOTION_DDOT":0}]
